line1,line2,validFromUtcTime
1 00000U 00000E   26001.00000000  .00000000  00000-0  27772-4 0    01,2 00000  88.8592 105.3338 0009989 271.0627 156.3997 13.55263324    09,2026-01-01T00:00:00Z
1 00000U 00000E   26002.00000000  .00000000  00000-0  27772-4 0    02,2 00000  88.8592 105.2177 0009989 268.1533 355.3461 13.55263362    01,2026-01-02T00:00:00Z
